OBJECT_NAME,OBJECT_ID,EPOCH,MEAN_MOTION,ECCENTRICITY,INCLINATION,RA_OF_ASC_NODE,ARG_OF_PERICENTER,MEAN_ANOMALY,EPHEMERIS_TYPE,CLASSIFICATION_TYPE,NORAD_CAT_ID,ELEMENT_SET_NO,REV_AT_EPOCH,BSTAR,MEAN_MOTION_DOT,MEAN_MOTION_DDOT
SL-8 R/B,1985-006B,2026-06-06T14:24:52.772256,14.37830311,.00184751,74.0452,97.5445,346.6650,186.0585,0,U,15483,999,16680,.10739255E-3,.298E-5,0
SL-12 R/B(2),1985-042D,2026-06-06T13:04:47.067744,14.22004009,.00357254,71.1086,259.9999,343.9807,102.0212,0,U,15772,999,12702,.82955153E-4,.137E-5,0
SL-14 R/B,1985-069B,2026-06-06T11:11:34.664352,14.86507231,.00172589,82.5263,301.4492,257.2709,102.6579,0,U,15945,999,18602,.54890249E-4,.511E-5,0
SL-16 R/B,1985-097B,2026-06-06T12:50:20.665824,14.16612237,.00057266,71.0037,313.5043,132.6288,290.5718,0,U,16182,999,9981,.44162122E-4,.4E-6,0
SL-14 R/B,1986-006B,2026-06-06T11:40:32.123424,14.86934934,.00757678,82.5262,176.1834,339.4278,20.3891,0,U,16496,999,16240,.63385941E-4,.623E-5,0
COSMOS 1743,1986-034A,2026-06-06T13:01:25.114656,15.65982011,.00035886,82.5281,340.0421,323.6293,36.4722,0,U,16719,999,19412,.53580332E-3,.54913E-3,0
SL-14 R/B,1986-046B,2026-06-06T12:16:21.792576,14.85664048,.00216854,82.4817,356.2645,296.1750,63.7236,0,U,16792,999,13959,.44238931E-4,.409E-5,0
SL-14 R/B,1986-055B,2026-06-06T10:58:48.266112,14.85715827,.0019923,82.5212,43.2206,42.0303,130.5943,0,U,16882,999,13254,.5238321E-4,.48E-5,0
AJISAI (EGS),1986-061A,2026-06-06T15:14:56.471712,12.44516696,.00112779,50.0062,179.8428,153.8092,5.7540,0,U,16908,999,47907,-.74809488E-4,-.108E-5,0
SL-14 R/B,1987-024B,2026-06-06T07:27:10.869408,14.86206120,.0017441,82.5285,9.4749,331.6762,28.3505,0,U,17567,999,10129,.44067625E-4,.412E-5,0
COSMOS 1833,1987-027A,2026-06-06T04:57:34.141824,14.13041784,.00225382,70.9150,139.9492,73.4853,286.8742,0,U,17589,999,2282,.17796275E-3,.285E-5,0
SL-16 R/B,1987-027B,2026-06-06T13:23:24.047808,14.17171016,.00059698,71.0029,89.2267,325.2094,34.8639,0,U,17590,999,2793,.13684642E-3,.228E-5,0
SL-14 R/B,1987-038B,2026-06-06T10:02:28.382784,14.85438983,.00180576,82.5016,213.2153,228.2085,131.7590,0,U,17912,999,9240,.42597575E-4,.392E-5,0
COSMOS 1844,1987-041A,2026-06-06T12:00:04.108320,14.14570084,.0033275,70.8988,206.8494,250.9979,108.7536,0,U,17973,999,1614,-.26708543E-4,-.1E-5,0
SL-14 R/B,1987-055B,2026-06-06T13:57:54.325728,14.85703555,.00221503,82.4996,265.2260,80.5760,279.7959,0,U,18153,999,8313,.56117723E-4,.513E-5,0
COSMOS 1867,1987-060A,2026-06-06T10:40:04.834560,14.31514622,.00162764,65.0116,58.1441,282.0448,77.8812,0,U,18187,999,3264,.27047729E-4,-.28E-6,0
SL-14 R/B,1988-001B,2026-06-06T13:59:44.160000,14.85601857,.00167671,82.5123,111.7492,307.7939,52.1758,0,U,18749,999,5522,.55022115E-4,.501E-5,0
COSMOS 1933,1988-020A,2026-06-06T11:53:16.921536,15.18645512,.00024438,82.5119,163.0228,232.7105,127.3907,0,U,18958,999,6370,.22470675E-3,.4683E-4,0
SL-3 R/B,1988-032B,2026-06-06T14:01:01.612416,15.20759693,.00236982,97.5254,140.6364,284.9496,74.9116,0,U,19046,999,6561,.22903922E-3,.5008E-4,0
SL-16 R/B,1988-039B,2026-06-06T11:32:44.784096,14.19628556,.00228367,71.0149,240.7958,208.9285,151.0576,0,U,19120,999,97098,.94195594E-4,.151E-5,0
COSMOS 1953,1988-050A,2026-06-06T13:17:30.596640,15.29826663,.00112346,82.5077,68.7552,159.7421,200.4267,0,U,19210,999,5136,.3276722E-3,.9514E-4,0
SL-8 R/B,1988-053B,2026-06-06T12:11:44.056320,14.38963608,.00192605,74.0476,308.7426,108.0168,315.4552,0,U,19257,999,98937,.10450873E-3,.297E-5,0
COSMOS 1975,1988-093A,2026-06-06T08:35:16.905984,15.29186428,.00103084,82.5199,28.5939,210.4858,149.5784,0,U,19573,999,3295,.31939018E-3,.9091E-4,0
SL-14 R/B,1988-093B,2026-06-06T11:54:33.708672,14.85733681,.00221631,82.5304,318.6829,103.4163,313.7025,0,U,19574,999,1420,.56124788E-4,.514E-5,0
SL-16 R/B,1988-102B,2026-06-06T11:32:15.391680,14.16166633,.00161256,71.0003,324.6670,239.9449,120.0075,0,U,19650,999,93946,.30907909E-4,.13E-6,0
INTERCOSMOS 24,1989-080A,2026-06-06T10:52:26.405760,12.59644676,.11883221,82.6075,46.6282,86.7900,286.8152,0,U,20261,999,67797,.27426973E-3,.963E-5,0
SL-14 R/B,1989-080C,2026-06-06T14:28:02.587008,12.50563466,.12293642,82.5917,116.1069,341.6182,14.3923,0,U,20262,999,67126,.15141095E-3,.508E-5,0
DELTA 1 R/B,1989-089B,2026-06-06T12:40:56.571456,14.50724321,.00683487,97.0640,350.7921,200.6708,159.1724,0,U,20323,999,90861,.10189253E-3,.377E-5,0
ARIANE 40 R/B,1990-005H,2026-06-06T09:54:40.087872,14.39921904,.00089285,98.2964,215.3636,301.5374,58.4942,0,U,20443,999,90557,.10559354E-3,.29E-5,0
DELTA 2 R/B(1),1990-008B,2026-06-06T02:41:03.363072,15.67094261,.0068397,35.5996,309.6616,9.6562,350.5477,0,U,20453,999,93996,.79153E-3,.10086E-2,0
