SL-8 R/B                
1 15483U 85006B   26157.60061079  .00000298  00000+0  10739-3 0  9991
2 15483  74.0452  97.5445 0018475 346.6650 186.0585 14.37830311166809
SL-12 R/B(2)            
1 15772U 85042D   26157.54498921  .00000137  00000+0  82955-4 0  9997
2 15772  71.1086 259.9999 0035725 343.9807 102.0212 14.22004009127027
SL-14 R/B               
1 15945U 85069B   26157.46637343  .00000511  00000+0  54890-4 0  9995
2 15945  82.5263 301.4492 0017258 257.2709 102.6579 14.86507231186024
SL-16 R/B               
1 16182U 85097B   26157.53496141  .00000040  00000+0  44162-4 0  9995
2 16182  71.0037 313.5043 0005726 132.6288 290.5718 14.16612237 99819
SL-14 R/B               
1 16496U 86006B   26157.48648291  .00000623  00000+0  63386-4 0  9999
2 16496  82.5262 176.1834 0075767 339.4278  20.3891 14.86934934162408
COSMOS 1743             
1 16719U 86034A   26157.54265179  .00054913  00000+0  53580-3 0  9990
2 16719  82.5281 340.0421 0003588 323.6293  36.4722 15.65982011194127
SL-14 R/B               
1 16792U 86046B   26157.51136334  .00000409  00000+0  44239-4 0  9994
2 16792  82.4817 356.2645 0021685 296.1750  63.7236 14.85664048139590
SL-14 R/B               
1 16882U 86055B   26157.45750308  .00000480  00000+0  52383-4 0  9998
2 16882  82.5212  43.2206 0019923  42.0303 130.5943 14.85715827132548
AJISAI (EGS)            
1 16908U 86061A   26157.63537583 -.00000108  00000+0 -74809-4 0  9998
2 16908  50.0062 179.8428 0011277 153.8092   5.7540 12.44516696479076
SL-14 R/B               
1 17567U 87024B   26157.31054247  .00000412  00000+0  44068-4 0  9996
2 17567  82.5285   9.4749 0017441 331.6762  28.3505 14.86206120101292
COSMOS 1833             
1 17589U 87027A   26157.20664516  .00000285  00000+0  17796-3 0  9992
2 17589  70.9150 139.9492 0022538  73.4853 286.8742 14.13041784 22825
SL-16 R/B               
1 17590U 87027B   26157.55791722  .00000228  00000+0  13685-3 0  9992
2 17590  71.0029  89.2267 0005969 325.2094  34.8639 14.17171016 27934
SL-14 R/B               
1 17912U 87038B   26157.41838406  .00000392  00000+0  42598-4 0  9996
2 17912  82.5016 213.2153 0018057 228.2085 131.7590 14.85438983 92403
COSMOS 1844             
1 17973U 87041A   26157.50004755 -.00000100  00000+0 -26709-4 0  9994
2 17973  70.8988 206.8494 0033275 250.9979 108.7536 14.14570084 16149
SL-14 R/B               
1 18153U 87055B   26157.58187877  .00000513  00000+0  56118-4 0  9998
2 18153  82.4996 265.2260 0022150  80.5760 279.7959 14.85703555 83133
COSMOS 1867             
1 18187U 87060A   26157.44450040 -.00000028  00000+0  27048-4 0  9993
2 18187  65.0116  58.1441 0016276 282.0448  77.8812 14.31514622 32646
SL-14 R/B               
1 18749U 88001B   26157.58315000  .00000501  00000+0  55022-4 0  9992
2 18749  82.5123 111.7492 0016767 307.7939  52.1758 14.85601857 55229
COSMOS 1933             
1 18958U 88020A   26157.49533474  .00004683  00000+0  22471-3 0  9998
2 18958  82.5119 163.0228 0002443 232.7105 127.3907 15.18645512 63707
SL-3 R/B                
1 19046U 88032B   26157.58404644  .00005008  00000+0  22904-3 0  9999
2 19046  97.5254 140.6364 0023698 284.9496  74.9116 15.20759693 65611
SL-16 R/B               
1 19120U 88039B   26157.48107389  .00000151  00000+0  94196-4 0  9991
2 19120  71.0149 240.7958 0022836 208.9285 151.0576 14.19628556970982
COSMOS 1953             
1 19210U 88050A   26157.55382635  .00009514  00000+0  32767-3 0  9998
2 19210  82.5077  68.7552 0011234 159.7421 200.4267 15.29826663 51361
SL-8 R/B                
1 19257U 88053B   26157.50814880  .00000297  00000+0  10451-3 0  9994
2 19257  74.0476 308.7426 0019260 108.0168 315.4552 14.38963608989375
COSMOS 1975             
1 19573U 88093A   26157.35783456  .00009091  00000+0  31939-3 0  9991
2 19573  82.5199  28.5939 0010308 210.4858 149.5784 15.29186428 32950
SL-14 R/B               
1 19574U 88093B   26157.49622348  .00000514  00000+0  56125-4 0  9995
2 19574  82.5304 318.6829 0022163 103.4163 313.7025 14.85733681 14203
SL-16 R/B               
1 19650U 88102B   26157.48073370  .00000013  00000+0  30908-4 0  9990
2 19650  71.0003 324.6670 0016125 239.9449 120.0075 14.16166633939460
INTERCOSMOS 24          
1 20261U 89080A   26157.45308340  .00000963  00000+0  27427-3 0  9996
2 20261  82.6075  46.6282 1188322  86.7900 286.8152 12.59644676677972
SL-14 R/B               
1 20262U 89080C   26157.60280772  .00000508  00000+0  15141-3 0  9997
2 20262  82.5917 116.1069 1229364 341.6182  14.3923 12.50563466671264
DELTA 1 R/B             
1 20323U 89089B   26157.52843254  .00000377  00000+0  10189-3 0  9996
2 20323  97.0640 350.7921 0068348 200.6708 159.1724 14.50724321908619
ARIANE 40 R/B           
1 20443U 90005H   26157.41296398  .00000290  00000+0  10559-3 0  9993
2 20443  98.2964 215.3636 0008928 301.5374  58.4942 14.39921904905579
DELTA 2 R/B(1)          
1 20453U 90008B   26157.11184448  .00100860  00000+0  79153-3 0  9995
2 20453  35.5996 309.6616 0068397   9.6562 350.5477 15.67094261939963
